[{"OBJECT_NAME":"STARLINK-32680","OBJECT_ID":"2024-249Q","EPOCH":"2026-03-09T01:09:56.856672","MEAN_MOTION":15.27568104,"ECCENTRICITY":0.00021552,"INCLINATION":42.999,"RA_OF_ASC_NODE":317.8607,"ARG_OF_PERICENTER":286.6468,"MEAN_ANOMALY":73.4147,"EPHEMERIS_TYPE":0,"CLASSIFICATION_TYPE":"U","NORAD_CAT_ID":62423,"ELEMENT_SET_NO":999,"REV_AT_EPOCH":6771,"BSTAR":0.0014731017,"MEAN_MOTION_DOT":0.00040484,"MEAN_MOTION_DDOT":0},{"OBJECT_NAME":"KUIPER-00276","OBJECT_ID":"2026-030AG","EPOCH":"2026-03-09T22:00:01.999584","MEAN_MOTION":15.30162454,"ECCENTRICITY":0.00186471,"INCLINATION":51.8824,"RA_OF_ASC_NODE":218.7283,"ARG_OF_PERICENTER":66.9346,"MEAN_ANOMALY":101.1527,"EPHEMERIS_TYPE":0,"CLASSIFICATION_TYPE":"U","NORAD_CAT_ID":67794,"ELEMENT_SET_NO":999,"REV_AT_EPOCH":482,"BSTAR":0.0021152378,"MEAN_MOTION_DOT":0.00063116,"MEAN_MOTION_DDOT":0}]
